[{"OBJECT_NAME":"STARLINK-3691","OBJECT_ID":"2022-025E","EPOCH":"2026-03-10T00:00:02.999808","MEAN_MOTION":15.13329414,"ECCENTRICITY":0.00019663,"INCLINATION":53.0821,"RA_OF_ASC_NODE":34.3258,"ARG_OF_PERICENTER":59.5345,"MEAN_ANOMALY":23.2018,"EPHEMERIS_TYPE":0,"CLASSIFICATION_TYPE":"U","NORAD_CAT_ID":51960,"ELEMENT_SET_NO":999,"REV_AT_EPOCH":579,"BSTAR":0.0028647204,"MEAN_MOTION_DOT":0.00051709,"MEAN_MOTION_DDOT":0},{"OBJECT_NAME":"FENGYUN 1C DEB","OBJECT_ID":"1999-025BTY","EPOCH":"2026-03-09T14:49:03.533664","MEAN_MOTION":15.05418076,"ECCENTRICITY":0.0035944,"INCLINATION":98.8793,"RA_OF_ASC_NODE":298.6402,"ARG_OF_PERICENTER":319.4464,"MEAN_ANOMALY":105.3063,"EPHEMERIS_TYPE":0,"CLASSIFICATION_TYPE":"U","NORAD_CAT_ID":31436,"ELEMENT_SET_NO":999,"REV_AT_EPOCH":98178,"BSTAR":0.0045436,"MEAN_MOTION_DOT":0.00066638,"MEAN_MOTION_DDOT":0}]
